{
  "norad_id": 43446,
  "name": "USA 286",
  "history": [
    {
      "epoch": "2026-03-20T06:38:52.625472Z",
      "apogee_km": 35321.68372171688,
      "perigee_km": 35230.84630107455,
      "latitude_deg": 2.5071221983664898,
      "longitude_deg": -50.646814227293966,
      "height_km": 35230.46316190832,
      "semi_major_axis_km": 41654.402011395716,
      "eccentricity": 0.00109037,
      "inclination_deg": 6.8979,
      "raan_deg": 67.9762,
      "arg_perigee_deg": 166.0645,
      "mean_anomaly_deg": 352.7187,
      "mean_motion_rev_day": 1.02120141
    }
  ]
}