{"fetched_at":"2026-04-05T12:57:33Z","count":17389,"tles":[{"name":"USA 286","line1":"1 43446U 18036F   26079.27699798 -.00000083  00000+0  00000+0 0  9990","line2":"2 43446   6.8979  67.9762 0010903 166.0645 352.7187  1.02120141 26014","category":"Military"}]}